<?xml version="1.0" encoding="UTF-8"?>
<kml xmlns="http://www.opengis.net/kml/2.2" xmlns:gx="http://www.google.com/kml/ext/2.2" xmlns:kml="http://www.opengis.net/kml/2.2" xmlns:atom="http://www.w3.org/2005/Atom">
<Document id="1kP5jKyNiL-nVIqWSGH3EzjHIt5GP1mpT">
	<name>Projeto sem título</name>
	<gx:CascadingStyle kml:id="__managed_style_0E2D601F9041D20FF920_highlight">
		<Style>
			<IconStyle>
				<scale>1.2</scale>
				<Icon>
					<href>https://earth.google.com/earth/document/icon?color=1976d2&amp;id=2127&amp;scale=4</href>
				</Icon>
				<hotSpot x="64" y="128" xunits="pixels" yunits="insetPixels"/>
			</IconStyle>
			<LabelStyle>
			</LabelStyle>
			<LineStyle>
				<color>ff2dc0fb</color>
				<width>6</width>
			</LineStyle>
			<PolyStyle>
				<color>40ffffff</color>
			</PolyStyle>
			<BalloonStyle>
			</BalloonStyle>
		</Style>
	</gx:CascadingStyle>
	<gx:CascadingStyle kml:id="__managed_style_0E2D601F9041D20FF920_normal">
		<Style>
			<IconStyle>
				<Icon>
					<href>https://earth.google.com/earth/document/icon?color=1976d2&amp;id=2127&amp;scale=4</href>
				</Icon>
				<hotSpot x="64" y="128" xunits="pixels" yunits="insetPixels"/>
			</IconStyle>
			<LabelStyle>
			</LabelStyle>
			<LineStyle>
				<color>ff2dc0fb</color>
				<width>4</width>
			</LineStyle>
			<PolyStyle>
				<color>40ffffff</color>
			</PolyStyle>
			<BalloonStyle>
			</BalloonStyle>
		</Style>
	</gx:CascadingStyle>
	<StyleMap id="__managed_style_0E2D601F9041D20FF920">
		<Pair>
			<key>normal</key>
			<styleUrl>#__managed_style_0E2D601F9041D20FF920_normal</styleUrl>
		</Pair>
		<Pair>
			<key>highlight</key>
			<styleUrl>#__managed_style_0E2D601F9041D20FF920_highlight</styleUrl>
		</Pair>
	</StyleMap>
	<gx:CascadingStyle kml:id="__managed_style_07EE480A1B41D20E2EB1_highlight">
		<Style>
			<IconStyle>
				<scale>1.2</scale>
				<Icon>
					<href>https://earth.google.com/earth/document/icon?color=1976d2&amp;id=2000&amp;scale=4</href>
				</Icon>
				<hotSpot x="64" y="128" xunits="pixels" yunits="insetPixels"/>
			</IconStyle>
			<LabelStyle>
			</LabelStyle>
			<LineStyle>
				<color>ff2dc0fb</color>
				<width>6</width>
			</LineStyle>
			<PolyStyle>
				<color>40ffffff</color>
			</PolyStyle>
			<BalloonStyle>
			</BalloonStyle>
		</Style>
	</gx:CascadingStyle>
	<gx:CascadingStyle kml:id="__managed_style_07EE480A1B41D20E2EB1_normal">
		<Style>
			<IconStyle>
				<Icon>
					<href>https://earth.google.com/earth/document/icon?color=1976d2&amp;id=2000&amp;scale=4</href>
				</Icon>
				<hotSpot x="64" y="128" xunits="pixels" yunits="insetPixels"/>
			</IconStyle>
			<LabelStyle>
			</LabelStyle>
			<LineStyle>
				<color>ff2dc0fb</color>
				<width>4</width>
			</LineStyle>
			<PolyStyle>
				<color>40ffffff</color>
			</PolyStyle>
			<BalloonStyle>
			</BalloonStyle>
		</Style>
	</gx:CascadingStyle>
	<StyleMap id="__managed_style_07EE480A1B41D20E2EB1">
		<Pair>
			<key>normal</key>
			<styleUrl>#__managed_style_07EE480A1B41D20E2EB1_normal</styleUrl>
		</Pair>
		<Pair>
			<key>highlight</key>
			<styleUrl>#__managed_style_07EE480A1B41D20E2EB1_highlight</styleUrl>
		</Pair>
	</StyleMap>
	<Placemark id="0404610C8C41C39A6989">
		<name>canto pisco piscina 1</name>
		<LookAt>
			<longitude>-45.99001581279595</longitude>
			<latitude>-21.35303910920393</latitude>
			<altitude>776.9510668161518</altitude>
			<heading>0</heading>
			<tilt>0</tilt>
			<gx:fovy>35</gx:fovy>
			<range>39.41009191258218</range>
			<altitudeMode>absolute</altitudeMode>
		</LookAt>
		<styleUrl>#__managed_style_07EE480A1B41D20E2EB1</styleUrl>
		<Point>
			<coordinates>-45.98997069389765,-21.35308042265654,776.8928982875879</coordinates>
		</Point>
	</Placemark>
	<Placemark id="06D1987D9241C39AC781">
		<name>canto pisco piscina 2</name>
		<LookAt>
			<longitude>-45.99001581279595</longitude>
			<latitude>-21.35303910920393</latitude>
			<altitude>776.9510668161518</altitude>
			<heading>0</heading>
			<tilt>0</tilt>
			<gx:fovy>35</gx:fovy>
			<range>39.41009191258218</range>
			<altitudeMode>absolute</altitudeMode>
		</LookAt>
		<styleUrl>#__managed_style_07EE480A1B41D20E2EB1</styleUrl>
		<Point>
			<coordinates>-45.99002329639482,-21.3531376169034,777.5193949208807</coordinates>
		</Point>
	</Placemark>
	<Placemark id="0AA8A4135A41C39AF944">
		<name>canto pisco piscina 3</name>
		<LookAt>
			<longitude>-45.99001581279595</longitude>
			<latitude>-21.35303910920393</latitude>
			<altitude>776.9510668161518</altitude>
			<heading>0</heading>
			<tilt>0</tilt>
			<gx:fovy>35</gx:fovy>
			<range>39.41009191258218</range>
			<altitudeMode>absolute</altitudeMode>
		</LookAt>
		<styleUrl>#__managed_style_07EE480A1B41D20E2EB1</styleUrl>
		<Point>
			<coordinates>-45.99008934792938,-21.35297487282374,776.8784740953912</coordinates>
		</Point>
	</Placemark>
	<Placemark id="03CB1713E041C39B3404">
		<name>canto pisco piscina 4</name>
		<LookAt>
			<longitude>-45.99001581279595</longitude>
			<latitude>-21.35303910920393</latitude>
			<altitude>776.9510668161518</altitude>
			<heading>0</heading>
			<tilt>0</tilt>
			<gx:fovy>35</gx:fovy>
			<range>39.41009191258218</range>
			<altitudeMode>absolute</altitudeMode>
		</LookAt>
		<styleUrl>#__managed_style_07EE480A1B41D20E2EB1</styleUrl>
		<Point>
			<coordinates>-45.99014327805587,-21.35302700486034,777.4448781410773</coordinates>
		</Point>
	</Placemark>
	<Placemark id="0C382E46A741C39BE026">
		<name>canto piscina 1</name>
		<LookAt>
			<longitude>-45.99001581279595</longitude>
			<latitude>-21.35303910920393</latitude>
			<altitude>776.9510668161518</altitude>
			<heading>0</heading>
			<tilt>0</tilt>
			<gx:fovy>35</gx:fovy>
			<range>39.41009191258218</range>
			<altitudeMode>absolute</altitudeMode>
		</LookAt>
		<styleUrl>#__managed_style_07EE480A1B41D20E2EB1</styleUrl>
		<Point>
			<coordinates>-45.99003962675136,-21.3530895377555,777.3294719565472</coordinates>
		</Point>
	</Placemark>
	<Placemark id="094DD6580E41C39C1C76">
		<name>canto piscina 2</name>
		<LookAt>
			<longitude>-45.99001581279595</longitude>
			<latitude>-21.35303910920393</latitude>
			<altitude>776.9510668161518</altitude>
			<heading>0</heading>
			<tilt>0</tilt>
			<gx:fovy>35</gx:fovy>
			<range>39.41009191258218</range>
			<altitudeMode>absolute</altitudeMode>
		</LookAt>
		<styleUrl>#__managed_style_07EE480A1B41D20E2EB1</styleUrl>
		<Point>
			<coordinates>-45.99002135220582,-21.35307358175373,777.1553159955486</coordinates>
		</Point>
	</Placemark>
	<Placemark id="043785C08F41C39C4793">
		<name>canto piscina 3</name>
		<LookAt>
			<longitude>-45.99001581279595</longitude>
			<latitude>-21.35303910920393</latitude>
			<altitude>776.9510668161518</altitude>
			<heading>0</heading>
			<tilt>0</tilt>
			<gx:fovy>35</gx:fovy>
			<range>39.41009191258218</range>
			<altitudeMode>absolute</altitudeMode>
		</LookAt>
		<styleUrl>#__managed_style_07EE480A1B41D20E2EB1</styleUrl>
		<Point>
			<coordinates>-45.9900876212287,-21.35301118420442,777.1291711980514</coordinates>
		</Point>
	</Placemark>
	<Placemark id="0E5D01642641C39C9C5F">
		<name>canto piscina 4</name>
		<LookAt>
			<longitude>-45.99001581279595</longitude>
			<latitude>-21.35303910920393</latitude>
			<altitude>776.9510668161518</altitude>
			<heading>0</heading>
			<tilt>0</tilt>
			<gx:fovy>35</gx:fovy>
			<range>39.41009191258218</range>
			<altitudeMode>absolute</altitudeMode>
		</LookAt>
		<styleUrl>#__managed_style_07EE480A1B41D20E2EB1</styleUrl>
		<Point>
			<coordinates>-45.99010584253725,-21.35302836521769,777.3129383920262</coordinates>
		</Point>
	</Placemark>
	<Placemark id="016692BF7341D20FF909">
		<name>p9</name>
		<LookAt>
			<longitude>-45.99008781039385</longitude>
			<latitude>-21.35302054155467</latitude>
			<altitude>777.1897661428654</altitude>
			<heading>0</heading>
			<tilt>0</tilt>
			<gx:fovy>35</gx:fovy>
			<range>25.00690587523877</range>
			<altitudeMode>absolute</altitudeMode>
		</LookAt>
		<styleUrl>#__managed_style_0E2D601F9041D20FF920</styleUrl>
		<Point>
			<coordinates>-45.99014342254619,-21.3530277341353,777.2934670314201</coordinates>
		</Point>
	</Placemark>
	<Placemark id="00CCC2FBCC41D21068DC">
		<name>P8</name>
		<LookAt>
			<longitude>-45.99008636954021</longitude>
			<latitude>-21.35301234081691</latitude>
			<altitude>777.1330213702064</altitude>
			<heading>0</heading>
			<tilt>0</tilt>
			<gx:fovy>35</gx:fovy>
			<range>25.06365622727117</range>
			<altitudeMode>absolute</altitudeMode>
		</LookAt>
		<styleUrl>#__managed_style_0E2D601F9041D20FF920</styleUrl>
		<Point>
			<coordinates>-45.99012905550696,-21.35304160340626,777.488398953095</coordinates>
		</Point>
	</Placemark>
	<Placemark id="0B989237FB41D210C5BC">
		<name>p1</name>
		<LookAt>
			<longitude>-45.99008636954021</longitude>
			<latitude>-21.35301234081691</latitude>
			<altitude>777.1330213702064</altitude>
			<heading>0</heading>
			<tilt>0</tilt>
			<gx:fovy>35</gx:fovy>
			<range>25.06365622727117</range>
			<altitudeMode>absolute</altitudeMode>
		</LookAt>
		<styleUrl>#__managed_style_0E2D601F9041D20FF920</styleUrl>
		<Point>
			<coordinates>-45.99011435410122,-21.35300080694912,777.1540993851941</coordinates>
		</Point>
	</Placemark>
</Document>
</kml>
